[{"OBJECT_NAME":"STARLINK-6342","OBJECT_ID":"2023-078D","EPOCH":"2026-03-09T22:24:55.514304","MEAN_MOTION":14.98338533,"ECCENTRICITY":0.00023541,"INCLINATION":70.002,"RA_OF_ASC_NODE":3.8447,"ARG_OF_PERICENTER":253.487,"MEAN_ANOMALY":106.603,"EPHEMERIS_TYPE":0,"CLASSIFICATION_TYPE":"U","NORAD_CAT_ID":56770,"ELEMENT_SET_NO":999,"REV_AT_EPOCH":15222,"BSTAR":2.8956148e-5,"MEAN_MOTION_DOT":2.53e-6,"MEAN_MOTION_DDOT":0},{"OBJECT_NAME":"COSMOS 375","OBJECT_ID":"1970-091A","EPOCH":"2026-03-09T16:41:37.064832","MEAN_MOTION":12.97415752,"ECCENTRICITY":0.09512894,"INCLINATION":62.8181,"RA_OF_ASC_NODE":201.7511,"ARG_OF_PERICENTER":174.0663,"MEAN_ANOMALY":187.2629,"EPHEMERIS_TYPE":0,"CLASSIFICATION_TYPE":"U","NORAD_CAT_ID":4598,"ELEMENT_SET_NO":999,"REV_AT_EPOCH":61567,"BSTAR":0.00022968696,"MEAN_MOTION_DOT":5.02e-6,"MEAN_MOTION_DDOT":0}]
